1 83005U 00000AAA 10019.29270428  .00000000  00000 0  99999 0 0    07
2 83005  13.0026  59.1827 0008556 283.5478 197.1526  1.00302926    07
